{"postcode":"AB101XG","latitude":57.14416516,"longitude":-2.114847768}
{"postcode":"AB106RN","latitude":57.13787976,"longitude":-2.121486688}
{"postcode":"AB107JB","latitude":57.12427377,"longitude":-2.127189644}
{"postcode":"AB115QN","latitude":57.14270109,"longitude":-2.093295}
{"postcode":"AB116UL","latitude":57.13754663,"longitude":-2.112233}
{"postcode":"AB118RQ","latitude":57.13597762,"longitude":-2.072114784}
{"postcode":"AB123FJ","latitude":57.0980029,"longitude":-2.077438}
{"postcode":"AB124NA","latitude":57.06427275,"longitude":-2.130018015}
{"postcode":"AB125GL","latitude":57.08193792,"longitude":-2.246567389}
{"postcode":"AB129SP","latitude":57.14870708,"longitude":-2.097806027}
{"postcode":"AB140TQ","latitude":57.10155692,"longitude":-2.268485752}
{"postcode":"AB155HB","latitude":57.147428,"longitude":-2.1472662}
{"postcode":"AB156NA","latitude":57.151797,"longitude":-2.185398}
{"postcode":"AB158UF","latitude":57.15400596,"longitude":-2.22440188}
{"postcode":"AB159SE","latitude":57.11864762,"longitude":-2.174250607}
{"postcode":"AB165ST","latitude":57.16346588,"longitude":-2.15933343}
{"postcode":"AB166SZ","latitude":57.15875117,"longitude":-2.165214861}
{"postcode":"AB167NX","latitude":57.1684384,"longitude":-2.161636}
{"postcode":"AB210AL","latitude":57.26342,"longitude":-2.158605}
